{
  "type": "FeatureCollection",
  "features": [
    {
      "type": "Feature",
      "properties": {
        "norad_id": 30848,
        "name": "FENGYUN 1C DEB",
        "group": "fengyun-1c-debris",
        "lat": -66.19925547471398,
        "lon": -162.814170261077,
        "alt_km": 767.8185139556144,
        "timestamp": "2025-12-07T09:35:10.069443+00:00",
        "meta_object_name": "FENGYUN 1C DEB",
        "meta_object_id": "1999-025AWJ",
        "meta_epoch": "2025-12-06T12:08:12.634656",
        "meta_mean_motion": 14.34424798,
        "meta_eccentricity": 0.00440615,
        "meta_inclination": 99.0598,
        "meta_ra_of_asc_node": 175.0416,
        "meta_arg_of_pericenter": 353.7978,
        "meta_mean_anomaly": 6.2654,
        "meta_ephemeris_type": 0,
        "meta_classification_type": "U",
        "meta_norad_cat_id": 30848,
        "meta_element_set_no": 999,
        "meta_rev_at_epoch": 97217,
        "meta_bstar": 0.0021579355,
        "meta_mean_motion_dot": 6.099e-05,
        "meta_mean_motion_ddot": 0,
        "tle_line1": "1 30848U 99025AWJ 25340.50570179  .00006099  00000+0  21579-2 0  9995",
        "tle_line2": "2 30848  99.0598 175.0416 0044061 353.7978   6.2654 14.34424798972171"
      },
      "geometry": {
        "type": "Point",
        "coordinates": [
          -162.814170261077,
          -66.19925547471398
        ]
      }
    },
    {
      "type": "Feature",
      "properties": {
        "norad_id": 30849,
        "name": "FENGYUN 1C DEB",
        "group": "fengyun-1c-debris",
        "lat": -73.24254290241106,
        "lon": 73.24325556891243,
        "alt_km": 841.1199421706269,
        "timestamp": "2025-12-07T09:35:10.069453+00:00",
        "meta_object_name": "FENGYUN 1C DEB",
        "meta_object_id": "1999-025AWK",
        "meta_epoch": "2025-12-06T17:37:12.364896",
        "meta_mean_motion": 14.18811053,
        "meta_eccentricity": 0.00482443,
        "meta_inclination": 99.0483,
        "meta_ra_of_asc_node": 40.6124,
        "meta_arg_of_pericenter": 23.783,
        "meta_mean_anomaly": 104.9256,
        "meta_ephemeris_type": 0,
        "meta_classification_type": "U",
        "meta_norad_cat_id": 30849,
        "meta_element_set_no": 999,
        "meta_rev_at_epoch": 96287,
        "meta_bstar": 0.0023583052,
        "meta_mean_motion_dot": 4.918e-05,
        "meta_mean_motion_ddot": 0,
        "tle_line1": "1 30849U 99025AWK 25340.73417089  .00004918  00000+0  23583-2 0  9996",
        "tle_line2": "2 30849  99.0483  40.6124 0048244  23.7830 104.9256 14.18811053962872"
      },
      "geometry": {
        "type": "Point",
        "coordinates": [
          73.24325556891243,
          -73.24254290241106
        ]
      }
    },
    {
      "type": "Feature",
      "properties": {
        "norad_id": 30850,
        "name": "FENGYUN 1C DEB",
        "group": "fengyun-1c-debris",
        "lat": -80.78065678112203,
        "lon": -38.27096434788709,
        "alt_km": 796.851811250649,
        "timestamp": "2025-12-07T09:35:10.069464+00:00",
        "meta_object_name": "FENGYUN 1C DEB",
        "meta_object_id": "1999-025AWL",
        "meta_epoch": "2025-12-06T13:59:08.100096",
        "meta_mean_motion": 14.16214178,
        "meta_eccentricity": 0.01096749,
        "meta_inclination": 98.3947,
        "meta_ra_of_asc_node": 206.4329,
        "meta_arg_of_pericenter": 215.9465,
        "meta_mean_anomaly": 207.7941,
        "meta_ephemeris_type": 0,
        "meta_classification_type": "U",
        "meta_norad_cat_id": 30850,
        "meta_element_set_no": 999,
        "meta_rev_at_epoch": 95711,
        "meta_bstar": 0.0035663684,
        "meta_mean_motion_dot": 7.453e-05,
        "meta_mean_motion_ddot": 0,
        "tle_line1": "1 30850U 99025AWL 25340.58273264  .00007453  00000+0  35664-2 0  9996",
        "tle_line2": "2 30850  98.3947 206.4329 0109674 215.9465 207.7941 14.16214178957111"
      },
      "geometry": {
        "type": "Point",
        "coordinates": [
          -38.27096434788709,
          -80.78065678112203
        ]
      }
    },
    {
      "type": "Feature",
      "properties": {
        "norad_id": 30852,
        "name": "FENGYUN 1C DEB",
        "group": "fengyun-1c-debris",
        "lat": 4.902347775640544,
        "lon": -1.4516318284905254,
        "alt_km": 877.5524191093973,
        "timestamp": "2025-12-07T09:35:10.069474+00:00",
        "meta_object_name": "FENGYUN 1C DEB",
        "meta_object_id": "1999-025AWN",
        "meta_epoch": "2025-12-05T11:35:17.301696",
        "meta_mean_motion": 14.10265487,
        "meta_eccentricity": 0.00556501,
        "meta_inclination": 98.7341,
        "meta_ra_of_asc_node": 357.4426,
        "meta_arg_of_pericenter": 255.4514,
        "meta_mean_anomaly": 104.0481,
        "meta_ephemeris_type": 0,
        "meta_classification_type": "U",
        "meta_norad_cat_id": 30852,
        "meta_element_set_no": 999,
        "meta_rev_at_epoch": 96280,
        "meta_bstar": 0.0008251474,
        "meta_mean_motion_dot": 1.441e-05,
        "meta_mean_motion_ddot": 0,
        "tle_line1": "1 30852U 99025AWN 25339.48283914  .00001441  00000+0  82515-3 0  9997",
        "tle_line2": "2 30852  98.7341 357.4426 0055650 255.4514 104.0481 14.10265487962801"
      },
      "geometry": {
        "type": "Point",
        "coordinates": [
          -1.4516318284905254,
          4.902347775640544
        ]
      }
    },
    {
      "type": "Feature",
      "properties": {
        "norad_id": 30856,
        "name": "FENGYUN 1C DEB",
        "group": "fengyun-1c-debris",
        "lat": -9.449333029807441,
        "lon": -15.013917914534073,
        "alt_km": 716.5548459937127,
        "timestamp": "2025-12-07T09:35:10.069484+00:00",
        "meta_object_name": "FENGYUN 1C DEB",
        "meta_object_id": "1999-025AWS",
        "meta_epoch": "2025-12-06T00:11:43.147392",
        "meta_mean_motion": 14.45786274,
        "meta_eccentricity": 0.0089241,
        "meta_inclination": 98.1982,
        "meta_ra_of_asc_node": 165.0162,
        "meta_arg_of_pericenter": 259.2143,
        "meta_mean_anomaly": 253.7897,
        "meta_ephemeris_type": 0,
        "meta_classification_type": "U",
        "meta_norad_cat_id": 30856,
        "meta_element_set_no": 999,
        "meta_rev_at_epoch": 96428,
        "meta_bstar": 0.0075622798,
        "meta_mean_motion_dot": 0.00028236,
        "meta_mean_motion_ddot": 0,
        "tle_line1": "1 30856U 99025AWS 25340.00813828  .00028236  00000+0  75623-2 0  9996",
        "tle_line2": "2 30856  98.1982 165.0162 0089241 259.2143 253.7897 14.45786274964280"
      },
      "geometry": {
        "type": "Point",
        "coordinates": [
          -15.013917914534073,
          -9.449333029807441
        ]
      }
    },
    {
      "type": "Feature",
      "properties": {
        "norad_id": 30857,
        "name": "FENGYUN 1C DEB",
        "group": "fengyun-1c-debris",
        "lat": -77.05237078585198,
        "lon": 14.231884236864733,
        "alt_km": 703.2862451616229,
        "timestamp": "2025-12-07T09:35:10.069495+00:00",
        "meta_object_name": "FENGYUN 1C DEB",
        "meta_object_id": "1999-025AWT",
        "meta_epoch": "2025-12-06T10:47:15.574848",
        "meta_mean_motion": 14.51149707,
        "meta_eccentricity": 0.00425376,
        "meta_inclination": 98.975,
        "meta_ra_of_asc_node": 329.7929,
        "meta_arg_of_pericenter": 314.165,
        "meta_mean_anomaly": 45.6049,
        "meta_ephemeris_type": 0,
        "meta_classification_type": "U",
        "meta_norad_cat_id": 30857,
        "meta_element_set_no": 999,
        "meta_rev_at_epoch": 96632,
        "meta_bstar": 0.0099836783,
        "meta_mean_motion_dot": 0.00040262,
        "meta_mean_motion_ddot": 0,
        "tle_line1": "1 30857U 99025AWT 25340.44948582  .00040262  00000+0  99837-2 0  9997",
        "tle_line2": "2 30857  98.9750 329.7929 0042537 314.1650  45.6049 14.51149707966328"
      },
      "geometry": {
        "type": "Point",
        "coordinates": [
          14.231884236864733,
          -77.05237078585198
        ]
      }
    },
    {
      "type": "Feature",
      "properties": {
        "norad_id": 30858,
        "name": "FENGYUN 1C DEB",
        "group": "fengyun-1c-debris",
        "lat": -25.306775085340064,
        "lon": -145.11841602682898,
        "alt_km": 834.8838655174277,
        "timestamp": "2025-12-07T09:35:10.069505+00:00",
        "meta_object_name": "FENGYUN 1C DEB",
        "meta_object_id": "1999-025AWU",
        "meta_epoch": "2025-12-06T19:22:48.580608",
        "meta_mean_motion": 14.17766938,
        "meta_eccentricity": 0.0030822,
        "meta_inclination": 98.7999,
        "meta_ra_of_asc_node": 38.4957,
        "meta_arg_of_pericenter": 126.294,
        "meta_mean_anomaly": 299.4565,
        "meta_ephemeris_type": 0,
        "meta_classification_type": "U",
        "meta_norad_cat_id": 30858,
        "meta_element_set_no": 999,
        "meta_rev_at_epoch": 96896,
        "meta_bstar": 0.00068890967,
        "meta_mean_motion_dot": 1.367e-05,
        "meta_mean_motion_ddot": 0,
        "tle_line1": "1 30858U 99025AWU 25340.80750672  .00001367  00000+0  68891-3 0  9999",
        "tle_line2": "2 30858  98.7999  38.4957 0030822 126.2940 299.4565 14.17766938968962"
      },
      "geometry": {
        "type": "Point",
        "coordinates": [
          -145.11841602682898,
          -25.306775085340064
        ]
      }
    }
  ]
}